[{"OBJECT_NAME":"STARLINK-3755","OBJECT_ID":"2022-041AY","EPOCH":"2026-02-22T16:24:32.787648","MEAN_MOTION":15.08836141,"ECCENTRICITY":0.0001363,"INCLINATION":53.2175,"RA_OF_ASC_NODE":166.4861,"ARG_OF_PERICENTER":88.43,"MEAN_ANOMALY":271.6848,"EPHEMERIS_TYPE":0,"CLASSIFICATION_TYPE":"U","NORAD_CAT_ID":52307,"ELEMENT_SET_NO":999,"REV_AT_EPOCH":21224,"BSTAR":1.3386e-5,"MEAN_MOTION_DOT":-7.5e-7,"MEAN_MOTION_DDOT":0},{"OBJECT_NAME":"STARLINK-3756","OBJECT_ID":"2022-041BA","EPOCH":"2026-02-22T19:10:09.129792","MEAN_MOTION":15.08840249,"ECCENTRICITY":0.0001219,"INCLINATION":53.2171,"RA_OF_ASC_NODE":155.9655,"ARG_OF_PERICENTER":106.7027,"MEAN_ANOMALY":253.4098,"EPHEMERIS_TYPE":0,"CLASSIFICATION_TYPE":"U","NORAD_CAT_ID":52309,"ELEMENT_SET_NO":999,"REV_AT_EPOCH":21361,"BSTAR":0.00019756,"MEAN_MOTION_DOT":2.858e-5,"MEAN_MOTION_DDOT":0},{"OBJECT_NAME":"STARLINK-3688","OBJECT_ID":"2022-041BB","EPOCH":"2026-02-22T19:04:51.229632","MEAN_MOTION":15.08837028,"ECCENTRICITY":4.56e-5,"INCLINATION":53.2178,"RA_OF_ASC_NODE":156.0478,"ARG_OF_PERICENTER":65.21,"MEAN_ANOMALY":294.894,"EPHEMERIS_TYPE":0,"CLASSIFICATION_TYPE":"U","NORAD_CAT_ID":52310,"ELEMENT_SET_NO":999,"REV_AT_EPOCH":21361,"BSTAR":3.7207e-5,"MEAN_MOTION_DOT":3.05e-6,"MEAN_MOTION_DDOT":0},{"OBJECT_NAME":"STARLINK-3750","OBJECT_ID":"2022-041BC","EPOCH":"2026-02-22T14:13:23.693376","MEAN_MOTION":15.08840085,"ECCENTRICITY":0.0001362,"INCLINATION":53.2181,"RA_OF_ASC_NODE":156.8967,"ARG_OF_PERICENTER":88.1946,"MEAN_ANOMALY":271.9202,"EPHEMERIS_TYPE":0,"CLASSIFICATION_TYPE":"U","NORAD_CAT_ID":52311,"ELEMENT_SET_NO":999,"REV_AT_EPOCH":21358,"BSTAR":0.0001686,"MEAN_MOTION_DOT":2.396e-5,"MEAN_MOTION_DDOT":0},{"OBJECT_NAME":"STARLINK-3752","OBJECT_ID":"2022-041BD","EPOCH":"2026-02-22T16:25:51.420288","MEAN_MOTION":15.0884112,"ECCENTRICITY":0.0001325,"INCLINATION":53.2149,"RA_OF_ASC_NODE":156.432,"ARG_OF_PERICENTER":94.5563,"MEAN_ANOMALY":265.5581,"EPHEMERIS_TYPE":0,"CLASSIFICATION_TYPE":"U","NORAD_CAT_ID":52312,"ELEMENT_SET_NO":999,"REV_AT_EPOCH":21360,"BSTAR":2.8764e-5,"MEAN_MOTION_DOT":1.7e-6,"MEAN_MOTION_DDOT":0},{"OBJECT_NAME":"STARLINK-3749","OBJECT_ID":"2022-041BE","EPOCH":"2026-02-22T18:06:32.810688","MEAN_MOTION":15.08843607,"ECCENTRICITY":0.0001388,"INCLINATION":53.2172,"RA_OF_ASC_NODE":156.1673,"ARG_OF_PERICENTER":88.3058,"MEAN_ANOMALY":271.8093,"EPHEMERIS_TYPE":0,"CLASSIFICATION_TYPE":"U","NORAD_CAT_ID":52313,"ELEMENT_SET_NO":999,"REV_AT_EPOCH":21361,"BSTAR":7.4438e-5,"MEAN_MOTION_DOT":8.97e-6,"MEAN_MOTION_DDOT":0},{"OBJECT_NAME":"STARLINK-3889","OBJECT_ID":"2022-045A","EPOCH":"2026-02-22T00:21:24.617664","MEAN_MOTION":15.08842215,"ECCENTRICITY":0.0001553,"INCLINATION":53.2173,"RA_OF_ASC_NODE":279.4901,"ARG_OF_PERICENTER":80.3593,"MEAN_ANOMALY":279.7574,"EPHEMERIS_TYPE":0,"CLASSIFICATION_TYPE":"U","NORAD_CAT_ID":52331,"ELEMENT_SET_NO":999,"REV_AT_EPOCH":21327,"BSTAR":4.9033e-5,"MEAN_MOTION_DOT":4.92e-6,"MEAN_MOTION_DDOT":0},{"OBJECT_NAME":"STARLINK-3831","OBJECT_ID":"2022-045B","EPOCH":"2026-02-22T21:18:42.126048","MEAN_MOTION":15.08840683,"ECCENTRICITY":0.0001373,"INCLINATION":53.2171,"RA_OF_ASC_NODE":275.5811,"ARG_OF_PERICENTER":88.4443,"MEAN_ANOMALY":271.6706,"EPHEMERIS_TYPE":0,"CLASSIFICATION_TYPE":"U","NORAD_CAT_ID":52332,"ELEMENT_SET_NO":999,"REV_AT_EPOCH":21340,"BSTAR":4.1975e-5,"MEAN_MOTION_DOT":3.8e-6,"MEAN_MOTION_DDOT":0},{"OBJECT_NAME":"STARLINK-3847","OBJECT_ID":"2022-045C","EPOCH":"2026-02-21T14:59:42.086688","MEAN_MOTION":15.08839744,"ECCENTRICITY":0.0001607,"INCLINATION":53.2176,"RA_OF_ASC_NODE":281.2431,"ARG_OF_PERICENTER":79.6165,"MEAN_ANOMALY":280.5008,"EPHEMERIS_TYPE":0,"CLASSIFICATION_TYPE":"U","NORAD_CAT_ID":52333,"ELEMENT_SET_NO":999,"REV_AT_EPOCH":21320,"BSTAR":1.5982e-5,"MEAN_MOTION_DOT":-3.4e-7,"MEAN_MOTION_DDOT":0},{"OBJECT_NAME":"STARLINK-3880","OBJECT_ID":"2022-045D","EPOCH":"2026-02-22T00:16:06.747744","MEAN_MOTION":15.08841248,"ECCENTRICITY":0.0001455,"INCLINATION":53.2172,"RA_OF_ASC_NODE":279.5074,"ARG_OF_PERICENTER":87.5034,"MEAN_ANOMALY":272.6125,"EPHEMERIS_TYPE":0,"CLASSIFICATION_TYPE":"U","NORAD_CAT_ID":52334,"ELEMENT_SET_NO":999,"REV_AT_EPOCH":21326,"BSTAR":7.1922e-5,"MEAN_MOTION_DOT":8.57e-6,"MEAN_MOTION_DDOT":0},{"OBJECT_NAME":"STARLINK-3814","OBJECT_ID":"2022-045E","EPOCH":"2026-02-22T00:10:49.004832","MEAN_MOTION":15.08839405,"ECCENTRICITY":0.0001628,"INCLINATION":53.2175,"RA_OF_ASC_NODE":279.5234,"ARG_OF_PERICENTER":85.9994,"MEAN_ANOMALY":274.1184,"EPHEMERIS_TYPE":0,"CLASSIFICATION_TYPE":"U","NORAD_CAT_ID":52335,"ELEMENT_SET_NO":999,"REV_AT_EPOCH":21327,"BSTAR":4.4884e-5,"MEAN_MOTION_DOT":4.26e-6,"MEAN_MOTION_DDOT":0},{"OBJECT_NAME":"STARLINK-3823","OBJECT_ID":"2022-045F","EPOCH":"2026-02-21T18:47:31.582752","MEAN_MOTION":15.0883774,"ECCENTRICITY":0.0001431,"INCLINATION":53.2171,"RA_OF_ASC_NODE":280.3262,"ARG_OF_PERICENTER":87.6939,"MEAN_ANOMALY":272.4217,"EPHEMERIS_TYPE":0,"CLASSIFICATION_TYPE":"U","NORAD_CAT_ID":52336,"ELEMENT_SET_NO":999,"REV_AT_EPOCH":21324,"BSTAR":5.8582e-6,"MEAN_MOTION_DOT":-1.95e-6,"MEAN_MOTION_DDOT":0},{"OBJECT_NAME":"STARLINK-3797","OBJECT_ID":"2022-045G","EPOCH":"2026-02-22T21:06:43.394688","MEAN_MOTION":15.0884467,"ECCENTRICITY":0.0001302,"INCLINATION":53.2166,"RA_OF_ASC_NODE":275.6102,"ARG_OF_PERICENTER":87.6858,"MEAN_ANOMALY":272.4283,"EPHEMERIS_TYPE":0,"CLASSIFICATION_TYPE":"U","NORAD_CAT_ID":52337,"ELEMENT_SET_NO":999,"REV_AT_EPOCH":21340,"BSTAR":8.4358e-5,"MEAN_MOTION_DOT":1.055e-5,"MEAN_MOTION_DDOT":0},{"OBJECT_NAME":"STARLINK-3792","OBJECT_ID":"2022-045J","EPOCH":"2026-02-22T21:17:16.045728","MEAN_MOTION":15.0883306,"ECCENTRICITY":0.0001399,"INCLINATION":53.217,"RA_OF_ASC_NODE":275.2171,"ARG_OF_PERICENTER":81.0995,"MEAN_ANOMALY":279.0155,"EPHEMERIS_TYPE":0,"CLASSIFICATION_TYPE":"U","NORAD_CAT_ID":52339,"ELEMENT_SET_NO":999,"REV_AT_EPOCH":21341,"BSTAR":-0.00017442,"MEAN_MOTION_DOT":-3.062e-5,"MEAN_MOTION_DDOT":0},{"OBJECT_NAME":"STARLINK-3818","OBJECT_ID":"2022-045K","EPOCH":"2026-02-22T21:13:20.881344","MEAN_MOTION":15.08837804,"ECCENTRICITY":0.0001458,"INCLINATION":53.2159,"RA_OF_ASC_NODE":265.5851,"ARG_OF_PERICENTER":93.2162,"MEAN_ANOMALY":266.8997,"EPHEMERIS_TYPE":0,"CLASSIFICATION_TYPE":"U","NORAD_CAT_ID":52340,"ELEMENT_SET_NO":999,"REV_AT_EPOCH":21353,"BSTAR":2.8276e-5,"MEAN_MOTION_DOT":1.62e-6,"MEAN_MOTION_DDOT":0},{"OBJECT_NAME":"STARLINK-3843","OBJECT_ID":"2022-045L","EPOCH":"2026-02-22T14:08:05.110656","MEAN_MOTION":15.08842491,"ECCENTRICITY":0.0001617,"INCLINATION":53.2176,"RA_OF_ASC_NODE":276.863,"ARG_OF_PERICENTER":120.5585,"MEAN_ANOMALY":239.5567,"EPHEMERIS_TYPE":0,"CLASSIFICATION_TYPE":"U","NORAD_CAT_ID":52341,"ELEMENT_SET_NO":999,"REV_AT_EPOCH":21336,"BSTAR":-7.2792e-5,"MEAN_MOTION_DOT":-1.446e-5,"MEAN_MOTION_DDOT":0},{"OBJECT_NAME":"STARLINK-3850","OBJECT_ID":"2022-045M","EPOCH":"2026-02-22T21:18:40.468032","MEAN_MOTION":15.08834367,"ECCENTRICITY":0.0001364,"INCLINATION":53.2165,"RA_OF_ASC_NODE":265.6848,"ARG_OF_PERICENTER":91.516,"MEAN_ANOMALY":268.5989,"EPHEMERIS_TYPE":0,"CLASSIFICATION_TYPE":"U","NORAD_CAT_ID":52342,"ELEMENT_SET_NO":999,"REV_AT_EPOCH":21354,"BSTAR":1.8042e-5,"MEAN_MOTION_DOT":-1.0e-8,"MEAN_MOTION_DDOT":0},{"OBJECT_NAME":"STARLINK-3849","OBJECT_ID":"2022-045N","EPOCH":"2026-02-22T15:01:04.629792","MEAN_MOTION":15.08840399,"ECCENTRICITY":0.0001518,"INCLINATION":53.2168,"RA_OF_ASC_NODE":276.7462,"ARG_OF_PERICENTER":107.7112,"MEAN_ANOMALY":252.4046,"EPHEMERIS_TYPE":0,"CLASSIFICATION_TYPE":"U","NORAD_CAT_ID":52343,"ELEMENT_SET_NO":999,"REV_AT_EPOCH":21337,"BSTAR":2.6645e-5,"MEAN_MOTION_DOT":1.36e-6,"MEAN_MOTION_DDOT":0},{"OBJECT_NAME":"STARLINK-3851","OBJECT_ID":"2022-045P","EPOCH":"2026-02-22T00:22:45.230592","MEAN_MOTION":15.08838193,"ECCENTRICITY":0.0002128,"INCLINATION":53.2168,"RA_OF_ASC_NODE":269.5518,"ARG_OF_PERICENTER":93.5916,"MEAN_ANOMALY":266.532,"EPHEMERIS_TYPE":0,"CLASSIFICATION_TYPE":"U","NORAD_CAT_ID":52344,"ELEMENT_SET_NO":999,"REV_AT_EPOCH":21341,"BSTAR":2.3122e-6,"MEAN_MOTION_DOT":-2.51e-6,"MEAN_MOTION_DDOT":0},{"OBJECT_NAME":"STARLINK-3852","OBJECT_ID":"2022-045Q","EPOCH":"2026-02-22T01:01:14.329344","MEAN_MOTION":15.08840127,"ECCENTRICITY":0.000141,"INCLINATION":53.2171,"RA_OF_ASC_NODE":269.5295,"ARG_OF_PERICENTER":92.082,"MEAN_ANOMALY":268.0334,"EPHEMERIS_TYPE":0,"CLASSIFICATION_TYPE":"U","NORAD_CAT_ID":52345,"ELEMENT_SET_NO":999,"REV_AT_EPOCH":21340,"BSTAR":4.0329e-5,"MEAN_MOTION_DOT":3.54e-6,"MEAN_MOTION_DDOT":0},{"OBJECT_NAME":"STARLINK-3812","OBJECT_ID":"2022-045R","EPOCH":"2026-02-22T00:13:30.977184","MEAN_MOTION":15.08838013,"ECCENTRICITY":0.0001489,"INCLINATION":53.2163,"RA_OF_ASC_NODE":269.5217,"ARG_OF_PERICENTER":109.272,"MEAN_ANOMALY":250.8434,"EPHEMERIS_TYPE":0,"CLASSIFICATION_TYPE":"U","NORAD_CAT_ID":52346,"ELEMENT_SET_NO":999,"REV_AT_EPOCH":21341,"BSTAR":2.7758e-5,"MEAN_MOTION_DOT":1.54e-6,"MEAN_MOTION_DDOT":0},{"OBJECT_NAME":"STARLINK-3826","OBJECT_ID":"2022-045S","EPOCH":"2026-02-22T21:09:26.252640","MEAN_MOTION":15.08833942,"ECCENTRICITY":0.0001669,"INCLINATION":53.2168,"RA_OF_ASC_NODE":265.6083,"ARG_OF_PERICENTER":95.1148,"MEAN_ANOMALY":265.0034,"EPHEMERIS_TYPE":0,"CLASSIFICATION_TYPE":"U","NORAD_CAT_ID":52347,"ELEMENT_SET_NO":999,"REV_AT_EPOCH":21354,"BSTAR":-6.014e-6,"MEAN_MOTION_DOT":-3.84e-6,"MEAN_MOTION_DDOT":0},{"OBJECT_NAME":"STARLINK-3829","OBJECT_ID":"2022-045T","EPOCH":"2026-02-22T20:41:32.975808","MEAN_MOTION":15.08830602,"ECCENTRICITY":0.0001535,"INCLINATION":53.2171,"RA_OF_ASC_NODE":265.6867,"ARG_OF_PERICENTER":93.8457,"MEAN_ANOMALY":266.271,"EPHEMERIS_TYPE":0,"CLASSIFICATION_TYPE":"U","NORAD_CAT_ID":52348,"ELEMENT_SET_NO":999,"REV_AT_EPOCH":21354,"BSTAR":4.9605e-5,"MEAN_MOTION_DOT":5.01e-6,"MEAN_MOTION_DDOT":0}]
